#dP2024 12  7  0  0  0.00000000      96 __u+U IGS20 FIT  IAC
## 2343 518400.00000000   900.00000000 60651 0.0000000000000
+  131   C01C02C03C04C05C06C07C08C09C10C11C12C13C14C16C19C20
+        C21C22C23C24C25C26C27C28C29C30C32C33C34C35C36C37C38
+        C39C40C41C42C43C44C45C59C60C62E02E03E04E05E06E07E08
+        E09E10E11E12E13E14E15E18E19E21E24E25E26E27E29E30E31
+        E33E34E36G02G03G04G05G06G07G08G09G10G11G12G13G14G15
+        G16G17G18G19G20G21G22G23G24G25G26G27G28G29G30G31G32
+        J02J03J04J07R01R02R03R04R05R06R07R08R09R10R11R12R13
+        R14R15R16R17R18R19R20R21R22R23R24R26  0  0  0  0  0
++        16 16 16 16 16  9 10  9  9 10  9  9  9  8  9  7  7
++         7  7  7  7  7  7  7  7  7  7  7  7  7  7  7  7  8
++         7  7  7  7  7  7  7 18 16 17  4  4  4  4  4  4  4
++         4  4  4  4  4  4  4  4  4  4  4  4  4  4  4  4  4
++         4  4  4  4  4  4  4  4  0  4  4  3  4  3  4  4  3
++         4  3  4  4  4  3  3  3  3  4  4  4  3  4  4  4  3
++         9  9 10 16  7  6  6  6  6 14  6  6  6 13  6  6 14
++         6  6  6  6  6  7  7  6  6 14  6  8  0  0  0  0  0
%c M  cc GPS ccc cccc cccc cccc cccc ccccc ccccc ccccc ccccc
%c cc cc ccc ccc cccc cccc cccc cccc ccccc ccccc ccccc ccccc
%f  0.0000000  0.000000000  0.00000000000  0.000000000000000
%f  0.0000000  0.000000000  0.00000000000  0.000000000000000
%i    0    0    0    0      0      0      0      0         0
%i    0    0    0    0      0      0      0      0         0
/* INFORMATION & ANALYSIS CENTER (IAC)            RAPID DATA
/* S/V CLOCKS ARE ALIGNED TO GNSS TIME                      
/* G:C1WC2W R:C1PC2P E:C1XC5X C:C2IC6I J:C1CC2S             
/* PCV:IGS20_2317 OL/AL:FES2004  NONE     YN ORB:CoN CLK:CoN
*  2024 12 07  7  0  0.00000000
PC01 -34339.329627  24410.266352  -1331.851939   -366.746264
PC02   4435.091527  41937.949030   -258.065553    745.434210
PC03 -14758.264053  39502.716265   -937.698963    789.838295
PC04 -39623.896243  14314.916541  -1665.571698   -527.194413
PC05  21957.138270  35963.749956    290.941403    110.279256
PC06 -15650.644612  25654.198301  29545.234015    519.343093
PC07  -9294.846865  41013.445853   4619.753226   -143.430862
PC08   1152.372465  25980.917660 -33117.105373   -886.027689
PC09  -6950.924237  25460.624166  33249.341912   -743.062548
PC10  -3909.562356  42266.035440  -1369.217831   -322.479290
PC11  -6214.354820  20217.603535 -18127.584393    277.639109
PC12 -20878.429882  18403.351517  -1981.280770   -238.547061
PC13   6280.893898  29160.339248 -29476.892590     81.641788
PC14   2248.546766  27570.281479  -3885.846093   -513.370674
PC16 -18778.481687  24965.003298  28460.271163     44.230454
PC19  -8214.265528 -26115.304126  -5338.893933   -969.742582
PC20   3076.698908 -25414.432876  11083.034866   -895.088263
PC21 -13728.395060   9102.320344 -22520.373514   -910.419919
PC22 -15582.579336 -11875.116922 -19873.894145    199.258032
PC23  25669.944815  10752.150751   1975.882915   -908.858370
PC24  -8123.243283  14370.491266  22478.146625    740.376282
PC25  12895.122171  17547.978691  17422.177494    581.422105
PC26 -23610.930579   3172.704872  14538.052259   -387.732925
PC27  23567.154825 -13212.737053  -7012.981235    406.356018
PC28  20366.355574    522.870270 -19060.501589    316.941483
PC29  -3461.971882 -17429.771396  21516.952742    372.094440
PC30  14658.025762 -21944.144644   9101.617216     46.657981
PC32  13726.362311  -9043.228801  22559.682649   -830.409836
PC33   8355.029687  26109.192905   5252.837244   -948.050395
PC34 -13194.898657  22139.384708 -10684.569967    580.242252
PC35 -20020.330854   -533.187828  19408.408615    188.283143
PC36 -12916.361262 -17800.463956 -17175.064539    233.543438
PC37  23799.694522  -2458.857709 -14338.097459   -895.418455
PC38  -5524.722945  23887.194009 -34219.314499 999999.999999
PC39 -23043.875352  25288.193212  24508.665198    -10.516021
PC40 -15147.481971  39038.774945   6243.731557   -106.883738
PC41  15530.375749  12850.992964  19353.525493   -885.914664
PC42  -4231.900110  24516.199752 -12630.441253   -532.698187
PC43   2583.805761  18061.100567 -21116.501255     94.505996
PC44 -23046.561284  14011.253039   7094.061158    674.084861
PC45 -25449.375695 -11206.223996  -2537.253130   -182.452338
PC59 -32256.150733  27138.159671  -1189.371893     -0.796571
PC60   7301.515344  41487.669429  -1363.745186      0.617108
PC62 -39636.814912  14390.591269    990.831461      0.271934
PE02 -16743.348941   4859.772126  23914.585655    180.421107
PE03 -19487.076800  15684.043583 -15840.589822   -158.296505
PE04  11032.844954 -27373.504032  -2282.135534   -100.722369
PE05 -16280.998628  -4961.981301 -24219.917420   4808.159718
PE06   3853.573476 -27067.757859 -11374.761205    -55.802595
PE07   3307.501259  23022.781592  18309.775326   -156.842977
PE08 -11545.209185  27214.748742   1563.933879   -379.934192
PE09  -3156.560642 -23009.052925 -18352.054102   -690.886962
PE10    381.140360 -16065.319814  24861.584156   -674.803426
PE11 -11812.323841 -14096.237900  23190.332636    392.458576
PE12  10966.148993 -15588.094360  22657.527769  -1329.023950
PE13  11193.982677  14191.166386 -23429.661683    -27.642060
PE14     99.410588  29227.895745 -13854.169980    447.261099
PE15 -11771.096214  15379.511068 -22368.917956   -143.513411
PE18  -6156.868465 -17604.276494  15129.373054    856.159511
PE19  19674.398631 -13954.577421  17161.862203   1046.849248
PE21  21746.130185  14319.070508 -14079.101709   -632.663076
PE24 -13941.599201 -25751.932244  -4431.688935  -1141.186701
PE25 -21716.032542 -14730.718571  13705.918091     12.000994
PE26  27373.133570   4493.379209 -10311.588950   -190.358948
PE27  14050.229761  25674.115137   4374.491426   -523.297691
PE29  16588.670950   4632.717611  24065.693110    -51.656358
PE30  -1820.103394  21817.614167  19898.863513  -1002.985751
PE31   1821.078100 -21746.894730 -20000.479761    -45.695260
PE33  27605.112058  -7284.428902   7812.842636     16.310266
PE34 -27429.979291   7558.651444  -8177.421927   -150.257751
PE36 -27132.181110  -4772.822526  10831.696088   -321.454109
PG02   3229.367206  14519.232904 -21530.316535   -297.732175
PG03  11413.235035  22677.778438  -8158.037083    618.645989
PG04   2055.798933  21804.926072  14932.927174    491.816876
PG05   1104.527942 -18176.130231  19136.563392   -195.263730
PG06  25897.917509  -5588.060020   2717.811357    -25.340392
PG07      0.000000      0.000000      0.000000 999999.999999
PG08  -5130.080728  25441.122597  -4486.020463    432.481723
PG09   9553.298038  14729.182306  19816.910536    476.422328
PG10 -18886.697447  -4281.264326 -18103.625996   -224.554097
PG11  18557.705239 -12264.525954  14504.926785   -752.289465
PG12  -6837.492695 -23223.250889 -11270.328698   -556.816649
PG13  13659.619878 -22554.559220   1566.539970    689.013514
PG14  20244.520723   7656.923748 -15502.776277    555.149517
PG15   1368.445438 -26011.571775  -5297.709603    236.615737
PG16  -7631.490936  14324.754577  20581.365826   -109.538350
PG17  16422.381048  -2218.180966 -20387.065549    529.362503
PG18 -21338.350985  -6842.252535  14465.680625   -660.521819
PG19  17929.854699 -11611.707156 -15638.857419    571.195552
PG20  11378.728369 -10410.983361  21698.646317    368.100772
PG21  -3383.245204  15721.428429 -20529.479758     95.593228
PG22  16945.849846     64.380347 -19981.821242    -84.705586
PG23 -20172.212853 -15795.495814  -7403.747551    378.485070
PG24  -1289.950507 -16127.787860 -21497.153651   -475.382791
PG25 -17386.294986 -20266.228432    114.011043    498.358943
PG26 -16022.113707   5341.081380  20395.150748      0.172391
PG27 -12534.333578  22325.500527   5843.692786    -34.374822
PG28 -26022.100833   5324.885295    315.228159   -501.071930
PG29  -7968.173974 -15449.814083  20003.664071   -557.953613
PG30  25937.910730    524.365724   6474.132495   -266.558714
PG31 -22433.899227  10329.819159   9996.323002   -220.439097
PG32 -16664.405578   6290.186876 -19412.754625   -562.903927
PJ02 -26573.603815  23462.460392  28047.805473      0.131700
PJ03 -33972.761615  19447.430550 -10802.887406     -8.461222
PJ04 -20038.404536  30559.950325 -16108.223595     21.456454
PJ07 -25401.220937  33651.170631      9.377114     -0.015403
PR01  -3927.853576 -24205.970396  -7014.429285    106.914009
PR02  -9218.544832 -12370.004350 -20295.051008    -39.251020
PR03 -10372.289560   7040.117265 -22158.544800    112.774918
PR04  -5817.853404  21770.965339 -11902.728029    267.324666
PR05   1713.946044  24993.431165   4726.720798    141.825660
PR06  10184.001764  10416.970767  20919.297379   -192.004799
PR07  10353.685799  -7566.721791  22099.583469     96.457529
PR08   5613.337097 -21985.563097  11755.924687     -6.152966
PR09  22409.083142  12271.454252    456.505533    224.797159
PR10  20846.073410   3918.478292 -14120.567073   -254.096027
PR11   8114.763397  -7877.143756 -22858.740308      5.288493
PR12 -11148.666112 -15681.797327 -16736.409554     48.112259
PR13 -21345.669010 -13638.287324  -3056.426946    -54.208474
PR14 -20008.541605  -2560.904272  15606.883201     27.374981
PR15  -6500.799347   9018.780071  22970.257116     73.400775
PR16  11100.579482  15545.040547  16927.621060     31.424722
PR17 -22846.423144   9872.629611   5706.489924    146.369872
PR18 -17563.207677  15097.732385 -10613.140960    175.555940
PR19  -5609.914857  13382.078285 -20972.161324   -301.041712
PR20  15080.835136   2634.339028 -20398.462388   -122.901167
PR21  22838.275846  -9086.095211  -6757.534315   -157.480383
PR22  16961.252781 -15069.209092  11699.970074    -33.498409
PR23   2618.863961 -12670.055240  21984.177519   -140.624982
PR24 -15745.955345  -1964.531310  20002.648637    -83.075386
PR26   6180.992971 -20886.625716  13280.577951   -132.969039
EOF
